start=new Date('2023-07-03T00:00:00.000Z').valueOf();
sats=[{"EPOCH":"2023-07-02T00:22:01.427520","CLASSIFICATION_TYPE":"U","PERIOD":"95.092","MEAN_MOTION":"15.14316247","SEMIMAJOR_AXIS":"6901.192","REF_FRAME":"TEME","NORAD_CAT_ID":"56301","OBJECT_TYPE":"PAYLOAD","ARG_OF_PERICENTER":"268.9744","MEAN_MOTION_DOT":"0.00003231","BSTAR":"0.00018544000000","ECCENTRICITY":"0.00015620","FILE":"3947456","CENTER_NAME":"EARTH","TIME_SYSTEM":"UTC","GP_ID":"234667430","ELEMENT_SET_NO":"999","TLE_LINE1":"1 56301U 23056R   23183.01529430  .00003231  00000-0  18544-3 0  9996","APOAPSIS":"524.135","COUNTRY_CODE":"US","INCLINATION":"42.9987","DECAY_DATE":null,"PERIAPSIS":"521.979","MEAN_MOTION_DDOT":"0.0000000000000","REV_AT_EPOCH":"1173","MEAN_ANOMALY":"91.0923","RCS_SIZE":"LARGE","TLE_LINE2":"2 56301  42.9987 146.1890 0001562 268.9744  91.0923 15.14316247 11739","MEAN_ELEMENT_THEORY":"SGP4","EPHEMERIS_TYPE":"0","RA_OF_ASC_NODE":"146.1890","OBJECT_ID":"2023-056R","SITE":"AFETR","OBJECT_NAME":"STARLINK-30101","LAUNCH_DATE":"2023-04-19"},{"ELEMENT_SET_NO":"999","GP_ID":"234666929","TIME_SYSTEM":"UTC","PERIAPSIS":"558.413","DECAY_DATE":null,"COUNTRY_CODE":"US","TLE_LINE1":"1 56302U 23056S   23183.16667824 -.00054149  00000-0 -40225-2 0  9999","APOAPSIS":"559.637","INCLINATION":"42.9994","EPHEMERIS_TYPE":"0","MEAN_ELEMENT_THEORY":"SGP4","TLE_LINE2":"2 56302  42.9994 143.5172 0000882 261.6833 235.8329 15.02554340 11783","MEAN_ANOMALY":"235.8329","RCS_SIZE":"LARGE","REV_AT_EPOCH":"1178","MEAN_MOTION_DDOT":"0.0000000000000","LAUNCH_DATE":"2023-04-19","SITE":"AFETR","OBJECT_NAME":"STARLINK-30111","OBJECT_ID":"2023-056S","RA_OF_ASC_NODE":"143.5172","PERIOD":"95.837","EPOCH":"2023-07-02T04:00:00.999936","CLASSIFICATION_TYPE":"U","OBJECT_TYPE":"PAYLOAD","NORAD_CAT_ID":"56302","REF_FRAME":"TEME","SEMIMAJOR_AXIS":"6937.160","MEAN_MOTION":"15.02554340","BSTAR":"-0.00402250000000","MEAN_MOTION_DOT":"-0.00054149","ARG_OF_PERICENTER":"261.6833","CENTER_NAME":"EARTH","FILE":"3947456","ECCENTRICITY":"0.00008820"},{"RA_OF_ASC_NODE":"143.7265","OBJECT_ID":"2023-056T","SITE":"AFETR","OBJECT_NAME":"STARLINK-30097","LAUNCH_DATE":"2023-04-19","REV_AT_EPOCH":"1176","MEAN_MOTION_DDOT":"0.0000000000000","RCS_SIZE":"LARGE","MEAN_ANOMALY":"121.7349","TLE_LINE2":"2 56303  42.9987 143.7265 0001326 238.3367 121.7349 15.09315090 11765","MEAN_ELEMENT_THEORY":"SGP4","EPHEMERIS_TYPE":"0","TLE_LINE1":"1 56303U 23056T   23183.03493417  .00014209  00000-0  88755-3 0  9993","COUNTRY_CODE":"US","APOAPSIS":"539.211","INCLINATION":"42.9987","DECAY_DATE":null,"PERIAPSIS":"537.376","TIME_SYSTEM":"UTC","ELEMENT_SET_NO":"999","GP_ID":"234667437","FILE":"3947457","ECCENTRICITY":"0.00013260","CENTER_NAME":"EARTH","ARG_OF_PERICENTER":"238.3367","MEAN_MOTION_DOT":"0.00014209","BSTAR":"0.00088755000000","SEMIMAJOR_AXIS":"6916.429","MEAN_MOTION":"15.09315090","REF_FRAME":"TEME","OBJECT_TYPE":"PAYLOAD","NORAD_CAT_ID":"56303","CLASSIFICATION_TYPE":"U","EPOCH":"2023-07-02T00:50:18.312288","PERIOD":"95.408"},{"OBJECT_TYPE":"PAYLOAD","NORAD_CAT_ID":"56304","SEMIMAJOR_AXIS":"6937.252","MEAN_MOTION":"15.02524558","REF_FRAME":"TEME","PERIOD":"95.839","CLASSIFICATION_TYPE":"U","EPOCH":"2023-07-02T04:00:00.999936","CENTER_NAME":"EARTH","ECCENTRICITY":"0.00008930","FILE":"3947457","BSTAR":"-0.00040427000000","ARG_OF_PERICENTER":"279.9858","MEAN_MOTION_DOT":"-0.00005658","COUNTRY_CODE":"US","TLE_LINE1":"1 56304U 23056U   23183.16667824 -.00005658  00000-0 -40427-3 0  9997","APOAPSIS":"559.736","INCLINATION":"43.0008","DECAY_DATE":null,"PERIAPSIS":"558.497","TIME_SYSTEM":"UTC","GP_ID":"234667436","ELEMENT_SET_NO":"999","SITE":"AFETR","OBJECT_NAME":"STARLINK-30099","LAUNCH_DATE":"2023-04-19","RA_OF_ASC_NODE":"143.3018","OBJECT_ID":"2023-056U","TLE_LINE2":"2 56304  43.0008 143.3018 0000893 279.9858 307.6822 15.02524558 11785","EPHEMERIS_TYPE":"0","MEAN_ELEMENT_THEORY":"SGP4","REV_AT_EPOCH":"1178","MEAN_MOTION_DDOT":"0.0000000000000","MEAN_ANOMALY":"307.6822","RCS_SIZE":"LARGE"},{"OBJECT_NAME":"STARLINK-30094","SITE":"AFETR","LAUNCH_DATE":"2023-04-19","RA_OF_ASC_NODE":"141.6273","OBJECT_ID":"2023-056V","TLE_LINE2":"2 56305  42.9971 141.6273 0001358 272.6882 304.5476 15.04231083 11805","MEAN_ELEMENT_THEORY":"SGP4","EPHEMERIS_TYPE":"0","MEAN_MOTION_DDOT":"0.0000000000000","REV_AT_EPOCH":"1180","MEAN_ANOMALY":"304.5476","RCS_SIZE":"LARGE","TLE_LINE1":"1 56305U 23056V   23183.16667824 -.01140686  00000-0 -87751-1 0  9999","COUNTRY_CODE":"US","APOAPSIS":"554.810","INCLINATION":"42.9971","DECAY_DATE":null,"PERIAPSIS":"552.928","TIME_SYSTEM":"UTC","GP_ID":"234667441","ELEMENT_SET_NO":"999","CENTER_NAME":"EARTH","ECCENTRICITY":"0.00013580","FILE":"3947457","BSTAR":"-0.08775100000000","ARG_OF_PERICENTER":"272.6882","MEAN_MOTION_DOT":"-0.01140686","NORAD_CAT_ID":"56305","OBJECT_TYPE":"PAYLOAD","MEAN_MOTION":"15.04231083","SEMIMAJOR_AXIS":"6932.004","REF_FRAME":"TEME","PERIOD":"95.730","EPOCH":"2023-07-02T04:00:00.999936","CLASSIFICATION_TYPE":"U"},{"RCS_SIZE":"LARGE","MEAN_ANOMALY":"91.1351","REV_AT_EPOCH":"1180","MEAN_MOTION_DDOT":"0.0000000000000","MEAN_ELEMENT_THEORY":"SGP4","EPHEMERIS_TYPE":"0","TLE_LINE2":"2 56306  43.0012 142.5524 0001175 268.9357  91.1351 15.02547572 11807","RA_OF_ASC_NODE":"142.5524","OBJECT_ID":"2023-056W","LAUNCH_DATE":"2023-04-19","OBJECT_NAME":"STARLINK-30112","SITE":"AFETR","ELEMENT_SET_NO":"999","GP_ID":"234673977","TIME_SYSTEM":"UTC","DECAY_DATE":null,"PERIAPSIS":"558.231","APOAPSIS":"559.861","TLE_LINE1":"1 56306U 23056W   23183.33849092  .00002457  00000-0  19686-3 0  9992","COUNTRY_CODE":"US","INCLINATION":"43.0012","MEAN_MOTION_DOT":"0.00002457","ARG_OF_PERICENTER":"268.9357","BSTAR":"0.00019686000000","ECCENTRICITY":"0.00011750","FILE":"3947741","CENTER_NAME":"EARTH","EPOCH":"2023-07-02T08:07:25.615488","CLASSIFICATION_TYPE":"U","PERIOD":"95.837","REF_FRAME":"TEME","SEMIMAJOR_AXIS":"6937.181","MEAN_MOTION":"15.02547572","OBJECT_TYPE":"PAYLOAD","NORAD_CAT_ID":"56306"},{"PERIAPSIS":"561.743","DECAY_DATE":null,"TLE_LINE1":"1 56317U 23058A   23183.55416714  .00000966  00000-0  79782-4 0  9998","COUNTRY_CODE":"US","APOAPSIS":"564.293","INCLINATION":"97.6568","ELEMENT_SET_NO":"999","GP_ID":"234675735","TIME_SYSTEM":"UTC","LAUNCH_DATE":"2023-04-27","OBJECT_NAME":"STARLINK-6038","SITE":"AFWTR","RA_OF_ASC_NODE":"184.3434","OBJECT_ID":"2023-058A","MEAN_ELEMENT_THEORY":"SGP4","EPHEMERIS_TYPE":"0","TLE_LINE2":"2 56317  97.6568 184.3434 0001837  96.4685 263.6748 15.01257918 10432","MEAN_ANOMALY":"263.6748","RCS_SIZE":"LARGE","MEAN_MOTION_DDOT":"0.0000000000000","REV_AT_EPOCH":"1043","NORAD_CAT_ID":"56317","OBJECT_TYPE":"PAYLOAD","REF_FRAME":"TEME","MEAN_MOTION":"15.01257918","SEMIMAJOR_AXIS":"6941.153","PERIOD":"95.920","EPOCH":"2023-07-02T13:18:00.040896","CLASSIFICATION_TYPE":"U","CENTER_NAME":"EARTH","FILE":"3947783","ECCENTRICITY":"0.00018370","BSTAR":"0.00007978200000","MEAN_MOTION_DOT":"0.00000966","ARG_OF_PERICENTER":"96.4685"},{"DECAY_DATE":null,"PERIAPSIS":"561.295","TLE_LINE1":"1 56318U 23058B   23182.75063770  .00000666  00000-0  56439-4 0  9991","APOAPSIS":"564.724","COUNTRY_CODE":"US","INCLINATION":"97.6567","ELEMENT_SET_NO":"999","GP_ID":"234655047","TIME_SYSTEM":"UTC","LAUNCH_DATE":"2023-04-27","OBJECT_NAME":"STARLINK-5954","SITE":"AFWTR","RA_OF_ASC_NODE":"183.5598","OBJECT_ID":"2023-058B","MEAN_ELEMENT_THEORY":"SGP4","EPHEMERIS_TYPE":"0","TLE_LINE2":"2 56318  97.6567 183.5598 0002470  94.9953 265.1554 15.01260679 10316","MEAN_ANOMALY":"265.1554","RCS_SIZE":"LARGE","MEAN_MOTION_DDOT":"0.0000000000000","REV_AT_EPOCH":"1031","NORAD_CAT_ID":"56318","OBJECT_TYPE":"PAYLOAD","REF_FRAME":"TEME","MEAN_MOTION":"15.01260679","SEMIMAJOR_AXIS":"6941.145","PERIOD":"95.919","CLASSIFICATION_TYPE":"U","EPOCH":"2023-07-01T18:00:55.097280","CENTER_NAME":"EARTH","ECCENTRICITY":"0.00024700","FILE":"3946947","BSTAR":"0.00005643900000","MEAN_MOTION_DOT":"0.00000666","ARG_OF_PERICENTER":"94.9953"},{"RA_OF_ASC_NODE":"183.5626","OBJECT_ID":"2023-058C","LAUNCH_DATE":"2023-04-27","SITE":"AFWTR","OBJECT_NAME":"STARLINK-6039","RCS_SIZE":"LARGE","MEAN_ANOMALY":"263.5935","REV_AT_EPOCH":"1031","MEAN_MOTION_DDOT":"0.0000000000000","EPHEMERIS_TYPE":"0","MEAN_ELEMENT_THEORY":"SGP4","TLE_LINE2":"2 56319  97.6565 183.5626 0002403  96.5562 263.5935 15.01259283 10311","DECAY_DATE":null,"PERIAPSIS":"561.346","TLE_LINE1":"1 56319U 23058C   23182.74878640  .00000505  00000-0  43914-4 0  9997","COUNTRY_CODE":"US","APOAPSIS":"564.682","INCLINATION":"97.6565","GP_ID":"234654544","ELEMENT_SET_NO":"999","TIME_SYSTEM":"UTC","ECCENTRICITY":"0.00024030","FILE":"3946947","CENTER_NAME":"EARTH","MEAN_MOTION_DOT":"0.00000505","ARG_OF_PERICENTER":"96.5562","BSTAR":"0.00004391400000","REF_FRAME":"TEME","SEMIMAJOR_AXIS":"6941.149","MEAN_MOTION":"15.01259283","OBJECT_TYPE":"PAYLOAD","NORAD_CAT_ID":"56319","CLASSIFICATION_TYPE":"U","EPOCH":"2023-07-01T17:58:15.144960","PERIOD":"95.919"},{"RA_OF_ASC_NODE":"183.5619","OBJECT_ID":"2023-058D","OBJECT_NAME":"STARLINK-5988","SITE":"AFWTR","LAUNCH_DATE":"2023-04-27","MEAN_MOTION_DDOT":"0.0000000000000","REV_AT_EPOCH":"1031","RCS_SIZE":"LARGE","MEAN_ANOMALY":"264.7187","TLE_LINE2":"2 56320  97.6567 183.5619 0002262  95.4295 264.7187 15.01258183 10311","EPHEMERIS_TYPE":"0","MEAN_ELEMENT_THEORY":"SGP4","TLE_LINE1":"1 56320U 23058D   23182.74903147  .00000318  00000-0  29373-4 0  9995","APOAPSIS":"564.588","COUNTRY_CODE":"US","INCLINATION":"97.6567","PERIAPSIS":"561.447","DECAY_DATE":null,"TIME_SYSTEM":"UTC","GP_ID":"234656364","ELEMENT_SET_NO":"999","FILE":"3946995","ECCENTRICITY":"0.00022620","CENTER_NAME":"EARTH","ARG_OF_PERICENTER":"95.4295","MEAN_MOTION_DOT":"0.00000318","BSTAR":"0.00002937300000","MEAN_MOTION":"15.01258183","SEMIMAJOR_AXIS":"6941.152","REF_FRAME":"TEME","NORAD_CAT_ID":"56320","OBJECT_TYPE":"PAYLOAD","EPOCH":"2023-07-01T17:58:36.319008","CLASSIFICATION_TYPE":"U","PERIOD":"95.920"}];
